{
  "type": "FeatureCollection",
  "features": [
    {
      "type": "Feature",
      "properties": {
        "norad_id": 30848,
        "name": "FENGYUN 1C DEB",
        "group": "fengyun-1c-debris",
        "lat": -50.50872273759462,
        "lon": -12.565646812326394,
        "alt_km": 795.7350787246078,
        "timestamp": "2025-12-09T21:34:11.687027+00:00",
        "meta_object_name": "FENGYUN 1C DEB",
        "meta_object_id": "1999-025AWJ",
        "meta_epoch": "2025-12-09T12:07:18.320160",
        "meta_mean_motion": 14.34452118,
        "meta_eccentricity": 0.0043937,
        "meta_inclination": 99.0597,
        "meta_ra_of_asc_node": 178.1858,
        "meta_arg_of_pericenter": 345.1202,
        "meta_mean_anomaly": 14.8685,
        "meta_ephemeris_type": 0,
        "meta_classification_type": "U",
        "meta_norad_cat_id": 30848,
        "meta_element_set_no": 999,
        "meta_rev_at_epoch": 97260,
        "meta_bstar": 0.0018448077,
        "meta_mean_motion_dot": 5.209e-05,
        "meta_mean_motion_ddot": 0,
        "tle_line1": "1 30848U 99025AWJ 25343.50507315  .00005209  00000+0  18448-2 0  9993",
        "tle_line2": "2 30848  99.0597 178.1858 0043937 345.1202  14.8685 14.34452118972604"
      },
      "geometry": {
        "type": "Point",
        "coordinates": [
          -12.565646812326394,
          -50.50872273759462
        ]
      }
    },
    {
      "type": "Feature",
      "properties": {
        "norad_id": 30849,
        "name": "FENGYUN 1C DEB",
        "group": "fengyun-1c-debris",
        "lat": 79.20146404100903,
        "lon": -12.812242960733377,
        "alt_km": 809.5672079146079,
        "timestamp": "2025-12-09T21:34:11.687037+00:00",
        "meta_object_name": "FENGYUN 1C DEB",
        "meta_object_id": "1999-025AWK",
        "meta_epoch": "2025-12-09T09:36:00.279072",
        "meta_mean_motion": 14.18830187,
        "meta_eccentricity": 0.00481338,
        "meta_inclination": 99.0471,
        "meta_ra_of_asc_node": 43.3309,
        "meta_arg_of_pericenter": 16.0931,
        "meta_mean_anomaly": 41.4315,
        "meta_ephemeris_type": 0,
        "meta_classification_type": "U",
        "meta_norad_cat_id": 30849,
        "meta_element_set_no": 999,
        "meta_rev_at_epoch": 96325,
        "meta_bstar": 0.0020215342,
        "meta_mean_motion_dot": 4.21e-05,
        "meta_mean_motion_ddot": 0,
        "tle_line1": "1 30849U 99025AWK 25343.40000323  .00004210  00000+0  20215-2 0  9996",
        "tle_line2": "2 30849  99.0471  43.3309 0048133  16.0931  41.4315 14.18830187963251"
      },
      "geometry": {
        "type": "Point",
        "coordinates": [
          -12.812242960733377,
          79.20146404100903
        ]
      }
    },
    {
      "type": "Feature",
      "properties": {
        "norad_id": 30850,
        "name": "FENGYUN 1C DEB",
        "group": "fengyun-1c-debris",
        "lat": 39.73879468884987,
        "lon": -157.49028594069677,
        "alt_km": 911.5110704415365,
        "timestamp": "2025-12-09T21:34:11.687047+00:00",
        "meta_object_name": "FENGYUN 1C DEB",
        "meta_object_id": "1999-025AWL",
        "meta_epoch": "2025-12-09T03:20:45.113856",
        "meta_mean_motion": 14.16242179,
        "meta_eccentricity": 0.01094457,
        "meta_inclination": 98.394,
        "meta_ra_of_asc_node": 208.8447,
        "meta_arg_of_pericenter": 208.4318,
        "meta_mean_anomaly": 282.9504,
        "meta_ephemeris_type": 0,
        "meta_classification_type": "U",
        "meta_norad_cat_id": 30850,
        "meta_element_set_no": 999,
        "meta_rev_at_epoch": 95747,
        "meta_bstar": 0.0024069658,
        "meta_mean_motion_dot": 5.017e-05,
        "meta_mean_motion_ddot": 0,
        "tle_line1": "1 30850U 99025AWL 25343.13941104  .00005017  00000+0  24070-2 0  9998",
        "tle_line2": "2 30850  98.3940 208.8447 0109445 208.4318 282.9504 14.16242179957472"
      },
      "geometry": {
        "type": "Point",
        "coordinates": [
          -157.49028594069677,
          39.73879468884987
        ]
      }
    },
    {
      "type": "Feature",
      "properties": {
        "norad_id": 30852,
        "name": "FENGYUN 1C DEB",
        "group": "fengyun-1c-debris",
        "lat": 80.4764134858065,
        "lon": -64.65837038961517,
        "alt_km": 887.968605765991,
        "timestamp": "2025-12-09T21:34:11.687058+00:00",
        "meta_object_name": "FENGYUN 1C DEB",
        "meta_object_id": "1999-025AWN",
        "meta_epoch": "2025-12-09T12:38:42.300672",
        "meta_mean_motion": 14.10276972,
        "meta_eccentricity": 0.00557557,
        "meta_inclination": 98.7338,
        "meta_ra_of_asc_node": 1.3702,
        "meta_arg_of_pericenter": 243.7918,
        "meta_mean_anomaly": 115.7515,
        "meta_ephemeris_type": 0,
        "meta_classification_type": "U",
        "meta_norad_cat_id": 30852,
        "meta_element_set_no": 999,
        "meta_rev_at_epoch": 96337,
        "meta_bstar": 0.00074142867,
        "meta_mean_motion_dot": 1.291e-05,
        "meta_mean_motion_ddot": 0,
        "tle_line1": "1 30852U 99025AWN 25343.52687848  .00001291  00000+0  74143-3 0  9992",
        "tle_line2": "2 30852  98.7338   1.3702 0055755 243.7918 115.7515 14.10276972963374"
      },
      "geometry": {
        "type": "Point",
        "coordinates": [
          -64.65837038961517,
          80.4764134858065
        ]
      }
    },
    {
      "type": "Feature",
      "properties": {
        "norad_id": 30856,
        "name": "FENGYUN 1C DEB",
        "group": "fengyun-1c-debris",
        "lat": -51.65095218759511,
        "lon": -21.721937493513632,
        "alt_km": 684.77133054961,
        "timestamp": "2025-12-09T21:34:11.687068+00:00",
        "meta_object_name": "FENGYUN 1C DEB",
        "meta_object_id": "1999-025AWS",
        "meta_epoch": "2025-12-08T11:35:10.496832",
        "meta_mean_motion": 14.45920611,
        "meta_eccentricity": 0.00887451,
        "meta_inclination": 98.2003,
        "meta_ra_of_asc_node": 167.4108,
        "meta_arg_of_pericenter": 251.9199,
        "meta_mean_anomaly": 174.1608,
        "meta_ephemeris_type": 0,
        "meta_classification_type": "U",
        "meta_norad_cat_id": 30856,
        "meta_element_set_no": 999,
        "meta_rev_at_epoch": 96464,
        "meta_bstar": 0.0065996768,
        "meta_mean_motion_dot": 0.0002468,
        "meta_mean_motion_ddot": 0,
        "tle_line1": "1 30856U 99025AWS 25342.48276038  .00024680  00000+0  65997-2 0  9998",
        "tle_line2": "2 30856  98.2003 167.4108 0088745 251.9199 174.1608 14.45920611964640"
      },
      "geometry": {
        "type": "Point",
        "coordinates": [
          -21.721937493513632,
          -51.65095218759511
        ]
      }
    },
    {
      "type": "Feature",
      "properties": {
        "norad_id": 30857,
        "name": "FENGYUN 1C DEB",
        "group": "fengyun-1c-debris",
        "lat": 10.102630483899608,
        "lon": -28.141604022786375,
        "alt_km": 710.6217095664852,
        "timestamp": "2025-12-09T21:34:11.687078+00:00",
        "meta_object_name": "FENGYUN 1C DEB",
        "meta_object_id": "1999-025AWT",
        "meta_epoch": "2025-12-08T10:46:31.641312",
        "meta_mean_motion": 14.51254389,
        "meta_eccentricity": 0.00422996,
        "meta_inclination": 98.9756,
        "meta_ra_of_asc_node": 331.9256,
        "meta_arg_of_pericenter": 308.5688,
        "meta_mean_anomaly": 51.1718,
        "meta_ephemeris_type": 0,
        "meta_classification_type": "U",
        "meta_norad_cat_id": 30857,
        "meta_element_set_no": 999,
        "meta_rev_at_epoch": 96661,
        "meta_bstar": 0.0058886303,
        "meta_mean_motion_dot": 0.00023717,
        "meta_mean_motion_ddot": 0,
        "tle_line1": "1 30857U 99025AWT 25342.44897733  .00023717  00000+0  58886-2 0  9995",
        "tle_line2": "2 30857  98.9756 331.9256 0042299 308.5688  51.1718 14.51254389966615"
      },
      "geometry": {
        "type": "Point",
        "coordinates": [
          -28.141604022786375,
          10.102630483899608
        ]
      }
    },
    {
      "type": "Feature",
      "properties": {
        "norad_id": 30858,
        "name": "FENGYUN 1C DEB",
        "group": "fengyun-1c-debris",
        "lat": -5.8362147464140826,
        "lon": 42.46475509460696,
        "alt_km": 848.7441712964792,
        "timestamp": "2025-12-09T21:34:11.687089+00:00",
        "meta_object_name": "FENGYUN 1C DEB",
        "meta_object_id": "1999-025AWU",
        "meta_epoch": "2025-12-09T15:34:43.180032",
        "meta_mean_motion": 14.17773895,
        "meta_eccentricity": 0.00308209,
        "meta_inclination": 98.7995,
        "meta_ra_of_asc_node": 41.3103,
        "meta_arg_of_pericenter": 118.4143,
        "meta_mean_anomaly": 42.6707,
        "meta_ephemeris_type": 0,
        "meta_classification_type": "U",
        "meta_norad_cat_id": 30858,
        "meta_element_set_no": 999,
        "meta_rev_at_epoch": 96936,
        "meta_bstar": 0.00063161178,
        "meta_mean_motion_dot": 1.25e-05,
        "meta_mean_motion_ddot": 0,
        "tle_line1": "1 30858U 99025AWU 25343.64911088  .00001250  00000+0  63161-3 0  9990",
        "tle_line2": "2 30858  98.7995  41.3103 0030820 118.4143  42.6707 14.17773895969361"
      },
      "geometry": {
        "type": "Point",
        "coordinates": [
          42.46475509460696,
          -5.8362147464140826
        ]
      }
    }
  ]
}